[{"OBJECT_NAME":"STARLINK-2509","OBJECT_ID":"2021-036AU","EPOCH":"2026-03-10T00:00:02.999808","MEAN_MOTION":15.19626094,"ECCENTRICITY":0.00012663,"INCLINATION":53.1115,"RA_OF_ASC_NODE":99.8305,"ARG_OF_PERICENTER":108.7705,"MEAN_ANOMALY":158.1349,"EPHEMERIS_TYPE":0,"CLASSIFICATION_TYPE":"U","NORAD_CAT_ID":48318,"ELEMENT_SET_NO":999,"REV_AT_EPOCH":569,"BSTAR":0.052634889,"MEAN_MOTION_DOT":0.01241997,"MEAN_MOTION_DDOT":0},{"OBJECT_NAME":"DMSP 5D-2 F14 DEB","OBJECT_ID":"1997-012E","EPOCH":"2026-03-09T23:05:42.500544","MEAN_MOTION":15.25086034,"ECCENTRICITY":0.00083151,"INCLINATION":98.7933,"RA_OF_ASC_NODE":208.6058,"ARG_OF_PERICENTER":272.9178,"MEAN_ANOMALY":87.1104,"EPHEMERIS_TYPE":0,"CLASSIFICATION_TYPE":"U","NORAD_CAT_ID":24778,"ELEMENT_SET_NO":999,"REV_AT_EPOCH":51788,"BSTAR":0.0054670036,"MEAN_MOTION_DOT":0.00139299,"MEAN_MOTION_DDOT":0}]
